{
  "links" : {
    "next" : "https://api.nasa.gov/neo/rest/v1/feed?start_date=2002-08-16&end_date=2002-08-16&detailed=true&api_key=t0TVs3DtDT2H8Oy2Zy8m2eVrNsAVKAexjcZXUckd",
    "prev" : "https://api.nasa.gov/neo/rest/v1/feed?start_date=2002-08-14&end_date=2002-08-14&detailed=true&api_key=t0TVs3DtDT2H8Oy2Zy8m2eVrNsAVKAexjcZXUckd",
    "self" : "https://api.nasa.gov/neo/rest/v1/feed?start_date=2002-08-15&end_date=2002-08-15&detailed=true&api_key=t0TVs3DtDT2H8Oy2Zy8m2eVrNsAVKAexjcZXUckd"
  },
  "element_count" : 8,
  "near_earth_objects" : {
    "2002-08-15" : [ {
      "links" : {
        "self" : "https://api.nasa.gov/neo/rest/v1/neo/2141761?api_key=t0TVs3DtDT2H8Oy2Zy8m2eVrNsAVKAexjcZXUckd"
      },
      "neo_reference_id" : "2141761",
      "name" : "141761 (2002 MC)",
      "nasa_jpl_url" : "http://ssd.jpl.nasa.gov/sbdb.cgi?sstr=2141761",
      "absolute_magnitude_h" : 17.2,
      "estimated_diameter" : {
        "kilometers" : {
          "estimated_diameter_min" : 0.9650614696,
          "estimated_diameter_max" : 2.1579430484
        },
        "meters" : {
          "estimated_diameter_min" : 965.0614695789,
          "estimated_diameter_max" : 2157.9430484443
        },
        "miles" : {
          "estimated_diameter_min" : 0.5996612104,
          "estimated_diameter_max" : 1.34088323
        },
        "feet" : {
          "estimated_diameter_min" : 3166.2122718533,
          "estimated_diameter_max" : 7079.8658710581
        }
      },
      "is_potentially_hazardous_asteroid" : false,
      "close_approach_data" : [ {
        "close_approach_date" : "2002-08-15",
        "epoch_date_close_approach" : 1029394800000,
        "relative_velocity" : {
          "kilometers_per_second" : "10.5164933113",
          "kilometers_per_hour" : "37859.3759205446",
          "miles_per_hour" : "23524.3438879629"
        },
        "miss_distance" : {
          "astronomical" : "0.373183308",
          "lunar" : "145.1683044434",
          "kilometers" : "55827428",
          "miles" : "34689556"
        },
        "orbiting_body" : "Earth"
      } ],
      "orbital_data" : {
        "orbit_id" : "78",
        "orbit_determination_date" : "2017-04-06 09:27:29",
        "orbit_uncertainty" : "0",
        "minimum_orbit_intersection" : ".268042",
        "jupiter_tisserand_invariant" : "3.166",
        "epoch_osculation" : "2458000.5",
        "eccentricity" : ".5084846829646404",
        "semi_major_axis" : "2.57652583240013",
        "inclination" : "18.90345061022195",
        "ascending_node_longitude" : "151.5825048819117",
        "orbital_period" : "1510.602428298179",
        "perihelion_distance" : "1.266401911361944",
        "perihelion_argument" : "159.8369067456698",
        "aphelion_distance" : "3.886649753438316",
        "perihelion_time" : "2458517.312844880305",
        "mean_anomaly" : "236.8354792289632",
        "mean_motion" : ".2383155178729392",
        "equinox" : "J2000"
      }
    }, {
      "links" : {
        "self" : "https://api.nasa.gov/neo/rest/v1/neo/2367943?api_key=t0TVs3DtDT2H8Oy2Zy8m2eVrNsAVKAexjcZXUckd"
      },
      "neo_reference_id" : "2367943",
      "name" : "367943 Duende (2012 DA14)",
      "nasa_jpl_url" : "http://ssd.jpl.nasa.gov/sbdb.cgi?sstr=2367943",
      "absolute_magnitude_h" : 24.0,
      "estimated_diameter" : {
        "kilometers" : {
          "estimated_diameter_min" : 0.0421264611,
          "estimated_diameter_max" : 0.0941976306
        },
        "meters" : {
          "estimated_diameter_min" : 42.1264610556,
          "estimated_diameter_max" : 94.1976305719
        },
        "miles" : {
          "estimated_diameter_min" : 0.0261761612,
          "estimated_diameter_max" : 0.0585316759
        },
        "feet" : {
          "estimated_diameter_min" : 138.2101784897,
          "estimated_diameter_max" : 309.0473542854
        }
      },
      "is_potentially_hazardous_asteroid" : false,
      "close_approach_data" : [ {
        "close_approach_date" : "2002-08-15",
        "epoch_date_close_approach" : 1029394800000,
        "relative_velocity" : {
          "kilometers_per_second" : "7.7500244088",
          "kilometers_per_hour" : "27900.0878715207",
          "miles_per_hour" : "17336.0295999457"
        },
        "miss_distance" : {
          "astronomical" : "0.0923040302",
          "lunar" : "35.9062652588",
          "kilometers" : "13808486",
          "miles" : "8580196"
        },
        "orbiting_body" : "Earth"
      } ],
      "orbital_data" : {
        "orbit_id" : "80",
        "orbit_determination_date" : "2017-04-06 09:22:36",
        "orbit_uncertainty" : "0",
        "minimum_orbit_intersection" : ".00172365",
        "jupiter_tisserand_invariant" : "6.532",
        "epoch_osculation" : "2458000.5",
        "eccentricity" : ".08934798500351414",
        "semi_major_axis" : ".910284163483397",
        "inclination" : "11.60915288087941",
        "ascending_node_longitude" : "146.9612496093153",
        "orbital_period" : "317.2224446928078",
        "perihelion_distance" : ".8289521076955461",
        "perihelion_argument" : "195.5895845340659",
        "aphelion_distance" : ".991616219271248",
        "perihelion_time" : "2458100.272452815114",
        "mean_anomaly" : "246.7731977533194",
        "mean_motion" : "1.134850342473772",
        "equinox" : "J2000"
      }
    }, {
      "links" : {
        "self" : "https://api.nasa.gov/neo/rest/v1/neo/3014792?api_key=t0TVs3DtDT2H8Oy2Zy8m2eVrNsAVKAexjcZXUckd"
      },
      "neo_reference_id" : "3014792",
      "name" : "(1998 SB15)",
      "nasa_jpl_url" : "http://ssd.jpl.nasa.gov/sbdb.cgi?sstr=3014792",
      "absolute_magnitude_h" : 20.9,
      "estimated_diameter" : {
        "kilometers" : {
          "estimated_diameter_min" : 0.1756123185,
          "estimated_diameter_max" : 0.3926810818
        },
        "meters" : {
          "estimated_diameter_min" : 175.6123184804,
          "estimated_diameter_max" : 392.6810818086
        },
        "miles" : {
          "estimated_diameter_min" : 0.1091204019,
          "estimated_diameter_max" : 0.2440006365
        },
        "feet" : {
          "estimated_diameter_min" : 576.1559189633,
          "estimated_diameter_max" : 1288.3238004408
        }
      },
      "is_potentially_hazardous_asteroid" : false,
      "close_approach_data" : [ {
        "close_approach_date" : "2002-08-15",
        "epoch_date_close_approach" : 1029394800000,
        "relative_velocity" : {
          "kilometers_per_second" : "6.8259844757",
          "kilometers_per_hour" : "24573.5441123833",
          "miles_per_hour" : "15269.0446736084"
        },
        "miss_distance" : {
          "astronomical" : "0.4298779572",
          "lunar" : "167.2225341797",
          "kilometers" : "64308828",
          "miles" : "39959652"
        },
        "orbiting_body" : "Earth"
      } ],
      "orbital_data" : {
        "orbit_id" : "29",
        "orbit_determination_date" : "2017-09-20 06:18:03",
        "orbit_uncertainty" : "0",
        "minimum_orbit_intersection" : ".112016",
        "jupiter_tisserand_invariant" : "5.167",
        "epoch_osculation" : "2458000.5",
        "eccentricity" : ".1613032917807446",
        "semi_major_axis" : "1.226094158769174",
        "inclination" : "15.6285748814065",
        "ascending_node_longitude" : "6.791330809571434",
        "orbital_period" : "495.8886429301609",
        "perihelion_distance" : "1.028321134926564",
        "perihelion_argument" : "67.62399607592471",
        "aphelion_distance" : "1.423867182611785",
        "perihelion_time" : "2458103.224295914807",
        "mean_anomaly" : "285.4253005053419",
        "mean_motion" : ".7259694391724576",
        "equinox" : "J2000"
      }
    } ]
  }
}